{
  "norad_id": 68774,
  "name": "STARLINK-37381",
  "history": [
    {
      "epoch": "2026-04-27T13:30:54.261792Z",
      "apogee_km": 290.92388096358354,
      "perigee_km": 285.04342928887127,
      "latitude_deg": -8.69290735657867e-06,
      "longitude_deg": 94.71106395076913,
      "height_km": 288.6260500914484,
      "semi_major_axis_km": 6666.120655126228,
      "eccentricity": 0.00044107,
      "inclination_deg": 97.2791,
      "raan_deg": 152.9883,
      "arg_perigee_deg": 29.9112,
      "mean_anomaly_deg": 330.2415,
      "mean_motion_rev_day": 15.95118702
    }
  ]
}