STARLINK-37381          
1 68774U 26086J   26117.56312803 -.00513501  89559-4 -13229-2 0  9995
2 68774  97.2791 152.9883 0004410  29.9112 330.2415 15.95118702  1185
